name,addresses_road_name,addresses_start_street_number,addresses_district_id,addresses_district_name,geo_epgs_4326_lat,geo_epgs_4326_lon
Restaurant Maná 75,Pg Joan Borbó Comte Barcelona,101,1,Ciutat Vella,41.371330800626644,2.1876265993001707
Restaurant Maná 75,Pg Joan Borbó Comte Barcelona,101,1,Ciutat Vella,41.371330800626644,2.1876265993001707
Restaurant Maná 75,Pg Joan Borbó Comte Barcelona,101,1,Ciutat Vella,41.371330800626644,2.1876265993001707
Restaurant Nº 30,Pg Joan Borbó Comte Barcelona,30,1,Ciutat Vella,41.37904016646946,2.1880414416045597
Restaurant Nº 30,Pg Joan Borbó Comte Barcelona,30,1,Ciutat Vella,41.37904016646946,2.1880414416045597
Restaurant Nº 30,Pg Joan Borbó Comte Barcelona,30,1,Ciutat Vella,41.37904016646946,2.1880414416045597
Bar La Confiteria,Sant Pau,128,1,Ciutat Vella,41.3755185559786,2.167940633280248
Bar La Confiteria,Sant Pau,128,1,Ciutat Vella,41.3755185559786,2.167940633280248
Bar La Confiteria,Sant Pau,128,1,Ciutat Vella,41.3755185559786,2.167940633280248
Cocteleria Monk,Carrer dels Abaixadors,6,1,Ciutat Vella,41.38310592859262,2.181191553452184
Cocteleria Monk,Carrer dels Abaixadors,6,1,Ciutat Vella,41.38310592859262,2.181191553452184
Restaurant Saraya Shisha Club,C Muntaner,102,2,Eixample,41.388688726870086,2.156915802866232
Restaurant Saraya Shisha Club,C Muntaner,102,2,Eixample,41.388688726870086,2.156915802866232
Restaurant Saraya Shisha Club,C Muntaner,102,2,Eixample,41.388688726870086,2.156915802866232
Restaurant Cocteleria Barítimo *Maremàgnum,Moll Espanya,5,1,Ciutat Vella,41.375450271691385,2.182393934529025
Restaurant Cocteleria Barítimo *Maremàgnum,Moll Espanya,5,1,Ciutat Vella,41.375450271691385,2.182393934529025
Restaurant Cocteleria Barítimo *Maremàgnum,Moll Espanya,5,1,Ciutat Vella,41.375450271691385,2.182393934529025
Atlàntic Bar,Av Tibidabo,56,5,Sarrià-Sant Gervasi,41.41536627252069,2.131617012042792
Bar musical Abanico,C Camp,3,5,Sarrià-Sant Gervasi,41.401629005577384,2.13817494725461
Bar musical Abanico,C Camp,3,5,Sarrià-Sant Gervasi,41.401629005577384,2.13817494725461
Bar musical Abanico,C Camp,3,5,Sarrià-Sant Gervasi,41.401629005577384,2.13817494725461
Discoteca La Terrrazza *Poble Espanyol,Av Francesc Ferrer Guàrdia,13,3,Sants-Montjuïc,41.36914809976752,2.1467430809493484
Sala Plataforma,C Nou de la Rambla,145,3,Sants-Montjuïc,41.3729218744942,2.1680044328607373
Sala Plataforma,C Nou de la Rambla,145,3,Sants-Montjuïc,41.3729218744942,2.1680044328607373
Bar musical Marley,C Joan Torras,25,9,Sant Andreu,41.43784665009436,2.191695745136286
Salsongu,Ptge Utset,11,2,Eixample,41.40449939478798,2.1779112755310126
Discoteca Performance con Atxé,C Provença,43,2,Eixample,41.38423837354681,2.147176397035106
Bar Treze,C Major de Sarrià,115,5,Sarrià-Sant Gervasi,41.40056704225509,2.120776021419042
Bar Treze,C Major de Sarrià,115,5,Sarrià-Sant Gervasi,41.40056704225509,2.120776021419042
Club Sauvage,Pl Reial,7,1,Ciutat Vella,41.38057557729068,2.175192398978123
Club Sauvage,Pl Reial,7,1,Ciutat Vella,41.38057557729068,2.175192398978123
Cerveseria Antibiòtic,Rocafort,225,2,Eixample,41.38450415759101,2.1462705631276715
Cocteleria Gimlet,C Santaló,46,5,Sarrià-Sant Gervasi,41.39612524673916,2.1453881871688365
Cocteleria Gimlet,C Santaló,46,5,Sarrià-Sant Gervasi,41.39612524673916,2.1453881871688365
Bar musical Aire - Sala Diana,València,236,2,Eixample,41.39036579067319,2.160382165443889
Discoteca Ku Barcelona,Passeig Marítim de la Barceloneta - Oriol Bohigas,38,1,Ciutat Vella,41.38346152967782,2.195232897771743
Discoteca Ku Barcelona,Passeig Marítim de la Barceloneta - Oriol Bohigas,38,1,Ciutat Vella,41.38346152967782,2.195232897771743
Cocteleria Two Schmucks,Carrer de Joaquín Costa,52,1,Ciutat Vella,41.3831615294379,2.1652030614999225
Cocteleria Two Schmucks,Carrer de Joaquín Costa,52,1,Ciutat Vella,41.3831615294379,2.1652030614999225
Bar Soda bus & Verne,Carrer d'Aribau,150,2,Eixample,41.39207042591961,2.1546562141646937
Bar Soda bus & Verne,Carrer d'Aribau,150,2,Eixample,41.39207042591961,2.1546562141646937
Bar Soda bus & Verne,Carrer d'Aribau,150,2,Eixample,41.39207042591961,2.1546562141646937
Jamming Lounge,C Vallfogona,23,6,Gràcia,41.40355210477575,2.1579781437681316
Bar Musical Acústic Sant Andreu,Rier Sant Andreu,9,9,Sant Andreu,41.433849280854886,2.1887417797790394
Restaurant The Alchemix,Carrer de València,212,2,Eixample,41.389324182392755,2.1589959188052603
Restaurant The Alchemix,Carrer de València,212,2,Eixample,41.389324182392755,2.1589959188052603
Restaurant The Alchemix,Carrer de València,212,2,Eixample,41.389324182392755,2.1589959188052603
Cocteleria Mareva,C Aribau,54,2,Eixample,41.3880747357833,2.159984736019471
Cocteleria Mareva,C Aribau,54,2,Eixample,41.3880747357833,2.159984736019471
Bar Musical Samba Brasil *Horta,C Santes Creus,20,7,Horta-Guinardó,41.43005584388977,2.162112239199044
Especiarium Bar,Carrer de la Princesa,29,1,Ciutat Vella,41.385703390001815,2.1807934178472212
Especiarium Bar,Carrer de la Princesa,29,1,Ciutat Vella,41.385703390001815,2.1807934178472212
Bar Musical Les Qents Que J'aime,C València,286,2,Eixample,41.39373856963519,2.164862225150066
Taverna Anglesa City Arms,Pl Narcís Oller,9,6,Gràcia,41.39698227132229,2.15547000350299
Bar Cafeteria Cinemateca,C Pau Claris,120,2,Eixample,41.39235893793418,2.1678443194565924
Bar Trikini,Carrer de Pujades,226,10,Sant Martí,41.40306280651095,2.2026978688852683
Bar Trikini,Carrer de Pujades,226,10,Sant Martí,41.40306280651095,2.2026978688852683
Bar Pantera Mambo Barcelona,Carrer de Joaquín Costa,39,1,Ciutat Vella,41.382614921981634,2.1656396074445134
Bar Pantera Mambo Barcelona,Carrer de Joaquín Costa,39,1,Ciutat Vella,41.382614921981634,2.1656396074445134
Taberna Tio Carlos,Ptge Gutenberg,7,1,Ciutat Vella,41.37693151786698,2.1747110351465655
Taberna Tio Carlos,Ptge Gutenberg,7,1,Ciutat Vella,41.37693151786698,2.1747110351465655
Cocteleria Doble,Pg Gràcia,116,6,Gràcia,41.397211059158614,2.159213702418187
Cocteleria Doble,Pg Gràcia,116,6,Gràcia,41.397211059158614,2.159213702418187
Cocteleria Popular Gopnik,Carrer de Vallfogona,23,6,Gràcia,41.40352490735006,2.1579665230100913
Cocteleria Popular Gopnik,Carrer de Vallfogona,23,6,Gràcia,41.40352490735006,2.1579665230100913
Bar Pub The James Joyce,C Casp,92,2,Eixample,41.39362616208608,2.176545204416195
Bar musical karaoke A viva voz *Aribau,Carrer d'Aribau,103,2,Eixample,41.390342854588354,2.156566649656205
Bar musical karaoke A viva voz *Aribau,Carrer d'Aribau,103,2,Eixample,41.390342854588354,2.156566649656205
Restaurant Lounge My Way,C Heures,4,1,Ciutat Vella,41.38077298942988,2.1752836048519177
Restaurant Lounge My Way,C Heures,4,1,Ciutat Vella,41.38077298942988,2.1752836048519177
Bar Musical Bar de Retro,C Torrent de l'Olla,141,6,Gràcia,41.40357998898639,2.155572605881731
Bar musical Revival,Trav Gràcia,40,5,Sarrià-Sant Gervasi,41.39538807510398,2.1486107075773364
Bar musical The Good Feeling,C Consell de Cent,319,2,Eixample,41.38947615246521,2.1633420803121344
Bar Musical Decode,C Aribau,97,2,Eixample,41.39025193072827,2.1567392047205014
Bar Village Club,C València,193,2,Eixample,41.38954089882291,2.15891924381821
Bar Nevermind,C Tallers,68,1,Ciutat Vella,41.3850530367574,2.1664467041469133
Bar Nevermind,C Tallers,68,1,Ciutat Vella,41.3850530367574,2.1664467041469133
Bar Nevermind,C Tallers,68,1,Ciutat Vella,41.3850530367574,2.1664467041469133
Bar Nevermind,C Tallers,68,1,Ciutat Vella,41.3850530367574,2.1664467041469133
Sala Monasterio,Moll Mestral,30,10,Sant Martí,41.38801827078488,2.1995779583018025
Sala Monasterio,Moll Mestral,30,10,Sant Martí,41.38801827078488,2.1995779583018025
Bar musical Le Standard,C Topazi,24,6,Gràcia,41.405092690581945,2.1548549884579242
Cocteleria Milk,C Gignàs,21,1,Ciutat Vella,41.38134062208952,2.1801416242172973
Cocteleria Milk,C Gignàs,21,1,Ciutat Vella,41.38134062208952,2.1801416242172973
Bar Musical Jazzman,C Roger de Flor,238,2,Eixample,41.401520101015535,2.1692951204960185
Pub Irlandès McCarthy's Bar,Via Laietana,44,1,Ciutat Vella,41.38622382435241,2.175981040153853
Pub Irlandès McCarthy's Bar,Via Laietana,44,1,Ciutat Vella,41.38622382435241,2.175981040153853
Pub Irlandès McCarthy's Bar,Via Laietana,44,1,Ciutat Vella,41.38622382435241,2.175981040153853
Pub anglès The Black Horse,C Allada-Vermell,16,1,Ciutat Vella,41.3867019384485,2.1810515500594216
Bar musical La Torre Rosa,C Francesc Tàrrega,22,9,Sant Andreu,41.42271161168508,2.1805040229700476
Bar musical La Torre Rosa,C Francesc Tàrrega,22,9,Sant Andreu,41.42271161168508,2.1805040229700476
Bar musical La Torre Rosa,C Francesc Tàrrega,22,9,Sant Andreu,41.42271161168508,2.1805040229700476
Dome Club Barcelona,la Rambla,33,1,Ciutat Vella,41.37904967762586,2.1748915638842
Dome Club Barcelona,la Rambla,33,1,Ciutat Vella,41.37904967762586,2.1748915638842
Cocteleria Paradiso,C Rere Palau,4,1,Ciutat Vella,41.38371515010612,2.183693669972104
Cocteleria Paradiso,C Rere Palau,4,1,Ciutat Vella,41.38371515010612,2.183693669972104
Bar musical Miramelindo,Pg Born,15,1,Ciutat Vella,41.38461809300949,2.1825520570069323
Jamboree,Plaça Reial,17,1,Ciutat Vella,41.37973531200141,2.1752857129194934
Jamboree,Plaça Reial,17,1,Ciutat Vella,41.37973531200141,2.1752857129194934
Bar Restaurant Hard Rock Café,Plaça de Catalunya,21,1,Ciutat Vella,41.38594368658605,2.170734333146683
Bar Restaurant Hard Rock Café,Plaça de Catalunya,21,1,Ciutat Vella,41.38594368658605,2.170734333146683
Bar musical Espai Barroc,C Montcada,20,1,Ciutat Vella,41.384655406357375,2.1815592870237217
Bar Musical Paspartú,C Basses de Sant Pere,14,1,Ciutat Vella,41.38871070266591,2.179967750518544
Bar Musical Paspartú,C Basses de Sant Pere,14,1,Ciutat Vella,41.38871070266591,2.179967750518544
Bar Musical Paspartú,C Basses de Sant Pere,14,1,Ciutat Vella,41.38871070266591,2.179967750518544
Bar musical Flann O'Brien's,C Casanova,264,5,Sarrià-Sant Gervasi,41.39415764089053,2.1474119033744383
Disco Bar Joe's,Pg Sant Antoni,19,3,Sants-Montjuïc,41.37719743747399,2.137027809522119
Bar musical Punto BCN,C Muntaner,63,2,Eixample,41.38672968161117,2.1591457284804476
Bar musical Punto BCN,C Muntaner,63,2,Eixample,41.38672968161117,2.1591457284804476
Bar musical Punto BCN,C Muntaner,63,2,Eixample,41.38672968161117,2.1591457284804476
Sala Artte,C Muntaner,83,2,Eixample,41.38771848445403,2.157835898445978
Sala Artte,C Muntaner,83,2,Eixample,41.38771848445403,2.157835898445978
Bar musical Lunatic Pub,C Regent Mendieta,38,4,Les Corts,41.377434861105804,2.123592869202551
Discoteca Downtown  Barcelona,Av Doctor Marañón,17,4,Les Corts,41.38128475384014,2.1144500230834193
Bar musical Alfa,Gran de Gràcia,36,6,Gràcia,41.39883535054437,2.156851033797103
Bar musical Alfa,Gran de Gràcia,36,6,Gràcia,41.39883535054437,2.156851033797103
Discoteca The Roxy Blue Barcelona,C Consell de Cent,294,2,Eixample,41.38984355391572,2.1642031567692506
Bar musical Merbeyé,Pl Doctor Andreu,1,5,Sarrià-Sant Gervasi,41.41630398556836,2.1314166957286984
Bar musical Merbeyé,Pl Doctor Andreu,1,5,Sarrià-Sant Gervasi,41.41630398556836,2.1314166957286984
Bar musical Merbeyé,Pl Doctor Andreu,1,5,Sarrià-Sant Gervasi,41.41630398556836,2.1314166957286984
Banker's Bar,Pg Gràcia,38,2,Eixample,41.39120589068645,2.166660891862418
Banker's Bar,Pg Gràcia,38,2,Eixample,41.39120589068645,2.166660891862418
Slow Barcelona Cocktails & Boite,C París,186,2,Eixample,41.393616799615536,2.1533816964183723
Slow Barcelona Cocktails & Boite,C París,186,2,Eixample,41.393616799615536,2.1533816964183723
Slow Barcelona Cocktails & Boite,C París,186,2,Eixample,41.393616799615536,2.1533816964183723
Slow Barcelona Cocktails & Boite,C París,186,2,Eixample,41.393616799615536,2.1533816964183723
Sala Continental,Providència,30,6,Gràcia,41.40625909022358,2.156435362868843
Cocteleria Scotch Corner,C Sabino Arana,8,4,Les Corts,41.38560332812702,2.126263661425434
Cocteleria Scotch Corner,C Sabino Arana,8,4,Les Corts,41.38560332812702,2.126263661425434
Cocteleria Scotch Corner,C Sabino Arana,8,4,Les Corts,41.38560332812702,2.126263661425434
Bar musical Tinta Roja,Creu dels Molers,17,3,Sants-Montjuïc,41.37422015013126,2.1619393043662325
Diobar,Av Marquès de l'Argentera,27,1,Ciutat Vella,41.38550869705176,2.1854573309617873
Bar musical Contraste,C Muntaner,130,2,Eixample,41.38982060472715,2.1554194440058154
Bar musical Sol de Nit,Pl Sol,9,6,Gràcia,41.4018395581395,2.1569329675708375
Venta Flamenco Barcelona,C Marquès de Barberà,6,1,Ciutat Vella,41.378739671235934,2.172517468344374
Luz de Gas * En remodelació,C Muntaner,246,5,Sarrià-Sant Gervasi,41.39462416093732,2.1490629497204705
Luz de Gas * En remodelació,C Muntaner,246,5,Sarrià-Sant Gervasi,41.39462416093732,2.1490629497204705
Bar musical Barroc,Rec,67,1,Ciutat Vella,41.38468523760261,2.183472237976554
Bar musical Basel 79,C Loreto,5,4,Les Corts,41.388906721989734,2.141727913587879
Bar La Rouge Raval Barcelona,Rbla Raval,10,1,Ciutat Vella,41.37867585484985,2.1689318988499253
Bar musical Barcota,Canvis Nous,14,1,Ciutat Vella,41.38306329134129,2.181902891208439
Bar Musical Polaroid Bar,C Còdols,29,1,Ciutat Vella,41.37935225866503,2.1787473098682844
Bar musical Inercia,C Aribau,124,2,Eixample,41.39119699312116,2.1558578491989517
Discoteca Otto Zutz,Carrer de Lincoln,15,5,Sarrià-Sant Gervasi,41.40043173862031,2.1500063862152055
Cocteleria Sips Drinkery House,Muntaner,108,2,Eixample,41.38885334446811,2.1566992090909163
Cocteleria Sips Drinkery House,Muntaner,108,2,Eixample,41.38885334446811,2.1566992090909163
Solange Cocktails & Luxury Spirits,C Aribau,143,2,Eixample,41.39226486455007,2.1540252933766957
Solange Cocktails & Luxury Spirits,C Aribau,143,2,Eixample,41.39226486455007,2.1540252933766957
Opium Mar Bcn,Passeig Marítim de la Barceloneta - Oriol Bohigas,34,1,Ciutat Vella,41.38347555576737,2.195480422364037
Opium Mar Bcn,Passeig Marítim de la Barceloneta - Oriol Bohigas,34,1,Ciutat Vella,41.38347555576737,2.195480422364037
Creperia Creps al Born,Pg Born,12,1,Ciutat Vella,41.384345861055806,2.182705431420744
Creperia Creps al Born,Pg Born,12,1,Ciutat Vella,41.384345861055806,2.182705431420744
Karaoke Touch Music,C Joan Miró,8,10,Sant Martí,41.389967430929744,2.1965805458831786
Bar de copes Sub-Rosa,C Rauric,23,1,Ciutat Vella,41.38077462878818,2.175704715642333
Bar Musical Samba Brasil *Lepant,C Lepant,297,2,Eixample,41.40574318196722,2.1748274246067996
Bar Musical Samba Brasil *Lepant,C Lepant,297,2,Eixample,41.40574318196722,2.1748274246067996
Bar Musical Samba Brasil *Lepant,C Lepant,297,2,Eixample,41.40574318196722,2.1748274246067996
Cocteleria Nosé,Pg Born,21,1,Ciutat Vella,41.385010309998805,2.182804044933376
Cocteleria Nosé,Pg Born,21,1,Ciutat Vella,41.385010309998805,2.182804044933376
Sala de Ball Nueva Época,G.V. Corts Catalanes,770,2,Eixample,41.398481256902706,2.1807508559953193
Sala de Ball Nueva Época,G.V. Corts Catalanes,770,2,Eixample,41.398481256902706,2.1807508559953193
Sala-Escenari,Pl Reial,7,1,Ciutat Vella,41.38057557729068,2.175192398978123
Bar Mau Mau,C Fontrodona,33,3,Sants-Montjuïc,41.372457419711424,2.166719244628817
Bar Mau Mau,C Fontrodona,33,3,Sants-Montjuïc,41.372457419711424,2.166719244628817
Bar musical Le Journal,C Francisco Giner,36,6,Gràcia,41.39951590311453,2.158822209002012
Bar musical Le Journal,C Francisco Giner,36,6,Gràcia,41.39951590311453,2.158822209002012
Bar musical Le Journal,C Francisco Giner,36,6,Gràcia,41.39951590311453,2.158822209002012
Flaherty's Irish Bar,Pl Joaquim Xirau i Palau,3,1,Ciutat Vella,41.37836288375026,2.1765998961527933
Bar musical Vinilo,C Matilde,2,6,Gràcia,41.400523516371834,2.157008236365306
Bar musical Vinilo,C Matilde,2,6,Gràcia,41.400523516371834,2.157008236365306
Bar musical Vinilo,C Matilde,2,6,Gràcia,41.400523516371834,2.157008236365306
Bar musical Ballbreak,C Matilde,7,6,Gràcia,41.40050073976057,2.156915232720945
Discoteca Hyde Club,Ptge Domingo,3,2,Eixample,41.39272044860553,2.1625293888111754
Pub The George Payne Irish Bar,Pl Urquinaona,5,2,Eixample,41.389519714259784,2.1729732125359145
Restaurant El Mamón,Ptge Pere Calders,2,2,Eixample,41.37611621136471,2.1629125424066036
Restaurant El Mamón,Ptge Pere Calders,2,2,Eixample,41.37611621136471,2.1629125424066036
Restaurant El Mamón,Ptge Pere Calders,2,2,Eixample,41.37611621136471,2.1629125424066036
Discoteca Magic Rock Barcelona,Pg Picasso,40,1,Ciutat Vella,41.38596064157473,2.185010384223497
Bar Muy Buenas,C Carme,63,1,Ciutat Vella,41.3809386993451,2.1680303039281594
Bar Muy Buenas,C Carme,63,1,Ciutat Vella,41.3809386993451,2.1680303039281594
Restaurant Pur - Impur,Ptge Concepció,11,2,Eixample,41.39449742202574,2.1600765925842613
Restaurant Pur - Impur,Ptge Concepció,11,2,Eixample,41.39449742202574,2.1600765925842613
Restaurant Pur - Impur,Ptge Concepció,11,2,Eixample,41.39449742202574,2.1600765925842613
Bar musical Com-tu,C Pere IV,101,10,Sant Martí,41.39901209905584,2.194458002122968
33/45 Bar & Gallery,Carrer de Joaquín Costa,4,1,Ciutat Vella,41.38112957060895,2.1673913772174056
33/45 Bar & Gallery,Carrer de Joaquín Costa,4,1,Ciutat Vella,41.38112957060895,2.1673913772174056
Cocteleria Trípode,Pg Born,17,1,Ciutat Vella,41.384733646790934,2.1826265074388886
Cocteleria Trípode,Pg Born,17,1,Ciutat Vella,41.384733646790934,2.1826265074388886
Bar Musical Quilombo,C Aribau,149,2,Eixample,41.39259220774479,2.1536438235753352
Bar Zelig,C Carme,116,1,Ciutat Vella,41.37979777676727,2.1662749099495224
Restaurant Club Bananas,C Fusina,7,1,Ciutat Vella,41.3865130691879,2.183194172957061
Restaurant Club Bananas,C Fusina,7,1,Ciutat Vella,41.3865130691879,2.183194172957061
Bar musical La Garrafa dels Beatles,C Joan Güell,150,4,Les Corts,41.38316081043577,2.1314968356739312
La Sonora de Gràcia,C Riera de Sant Miquel,59,6,Gràcia,41.39851429481854,2.155007427407109
Sala Soda Acústic,C Guilleries,6,6,Gràcia,41.40310918221138,2.1570135071246894
Discoteca Sala Bloc,Rda Sant Pere,19,2,Eixample,41.38962561720019,2.1740469932816198
Sala Vivaldi,C Llança,5,2,Eixample,41.37558069287556,2.151331615488154
Sala Vivaldi,C Llança,5,2,Eixample,41.37558069287556,2.151331615488154
Sala de Ball Duvet,Còrsega,327,6,Gràcia,41.39722729649313,2.16005681745758
Sala de Ball Duvet,Còrsega,327,6,Gràcia,41.39722729649313,2.16005681745758
Espai Gastronòmic Born 14,Carrer del Sabateret,2,1,Ciutat Vella,41.38556607553018,2.1821154842136794
Espai Gastronòmic Born 14,Carrer del Sabateret,2,1,Ciutat Vella,41.38556607553018,2.1821154842136794
Espai Gastronòmic Born 14,Carrer del Sabateret,2,1,Ciutat Vella,41.38556607553018,2.1821154842136794
Bar musical Ceferino,Pamplona,88,10,Sant Martí,41.39691415520172,2.1913005346827257
Cocteleria Caribbean Club,C Sitges,5,1,Ciutat Vella,41.38449042393953,2.169612136496942
Cocteleria Caribbean Club,C Sitges,5,1,Ciutat Vella,41.38449042393953,2.169612136496942
Bar Musical New Underground,C Aviació,5,4,Les Corts,41.387372675522265,2.135457899083233
Harlem Jazz Club,C Comtessa de Sobradiel,8,1,Ciutat Vella,41.38117429208919,2.1784255951980773
Restaurant Bar Margarita Blue,C Josep Anselm Clavé,6,1,Ciutat Vella,41.37797438181999,2.178415462353017
Restaurant Bar Margarita Blue,C Josep Anselm Clavé,6,1,Ciutat Vella,41.37797438181999,2.178415462353017
Sala Almo2bar,C Bruniquer,59,6,Gràcia,41.40563998617621,2.1621229744263215
Sala de Festes La Paloma,C Tigre,27,1,Ciutat Vella,41.38241596057972,2.164214248059911
Sala Almodobar,C Grassot,36,6,Gràcia,41.4036158257063,2.1675628794596205
Sala Almodobar,C Grassot,36,6,Gràcia,41.4036158257063,2.1675628794596205
Bar Café del Born Nou,Pl Comercial,10,1,Ciutat Vella,41.38514950183597,2.183651690111131
Cocteleria Stereo 18,Pg Born,18,1,Ciutat Vella,41.384507282533846,2.182809326824508
Cocteleria Stereo 18,Pg Born,18,1,Ciutat Vella,41.384507282533846,2.182809326824508
Jardín de Diana,G.V. Corts Catalanes,668,2,Eixample,41.39159498396441,2.17158164718764
Jardín de Diana,G.V. Corts Catalanes,668,2,Eixample,41.39159498396441,2.17158164718764
The Philharmonic,C Mallorca,204,2,Eixample,41.39031653877783,2.1583344746486315
The Philharmonic,C Mallorca,204,2,Eixample,41.39031653877783,2.1583344746486315
Restaurant Volta al Món,C Muntaner,51,2,Eixample,41.38607977244917,2.160003250535219
Restaurant Volta al Món,C Muntaner,51,2,Eixample,41.38607977244917,2.160003250535219
Restaurant Volta al Món,C Muntaner,51,2,Eixample,41.38607977244917,2.160003250535219
Bar Restaurant La Fourmi,C Alba,2,6,Gràcia,41.402009444177104,2.1617601888921314
Bar Restaurant La Fourmi,C Alba,2,6,Gràcia,41.402009444177104,2.1617601888921314
Bar Restaurant La Fourmi,C Alba,2,6,Gràcia,41.402009444177104,2.1617601888921314
Discoteca Mojito Club,C Rosselló,217,2,Eixample,41.39315031085824,2.156938618778249
Pub The Lima House,C Carders,31,1,Ciutat Vella,41.38699381707336,2.180301705053117
Restaurant Nº30 Barceloneta,Pg Joan Borbó Comte Barcelona,30,1,Ciutat Vella,41.37904016646946,2.1880414416045597
Restaurant Nº30 Barceloneta,Pg Joan Borbó Comte Barcelona,30,1,Ciutat Vella,41.37904016646946,2.1880414416045597
Restaurant Nº30 Barceloneta,Pg Joan Borbó Comte Barcelona,30,1,Ciutat Vella,41.37904016646946,2.1880414416045597
Santé Café,Comte d'Urgell,171,2,Eixample,41.38795088816933,2.1506456351999677
Santé Café,Comte d'Urgell,171,2,Eixample,41.38795088816933,2.1506456351999677
Bar Origginals Club,C Gaiarre,50,3,Sants-Montjuïc,41.37347039577246,2.1402971200287175
Bar musical Kahala,Av Diagonal,537,4,Les Corts,41.39071524124531,2.138044725094473
Bar musical Bubblic Bar,C Marià Cubí,183,5,Sarrià-Sant Gervasi,41.395384285949355,2.144889537768522
Sala Tarantos,Pl Reial,17,1,Ciutat Vella,41.37973531200141,2.1752857129194934
Restaurant Tablao de Carmen *Poble Espanyol,Av Francesc Ferrer i Guàrdia,13,3,Sants-Montjuïc,41.36914809976752,2.1467430809493484
Restaurant Tablao de Carmen *Poble Espanyol,Av Francesc Ferrer i Guàrdia,13,3,Sants-Montjuïc,41.36914809976752,2.1467430809493484
Restaurant Tapas&Beer,G.V. Corts Catalanes,640,2,Eixample,41.389938026263984,2.169377970918539
Restaurant Tapas&Beer,G.V. Corts Catalanes,640,2,Eixample,41.389938026263984,2.169377970918539
Discoteca Pub Dixit 724,C Pallars,115,10,Sant Martí,41.39701944281436,2.1919915652174313
Discoteca Pub Dixit 724,C Pallars,115,10,Sant Martí,41.39701944281436,2.1919915652174313
Bar Musical La Concha,C Guàrdia,14,1,Ciutat Vella,41.37769573234636,2.1741957745420204
Bar Musical London Bar,C Nou de la Rambla,34,1,Ciutat Vella,41.37814933333809,2.1731803971737738
Bar Musical Sala Taro,Carrer de Rossend Arús,9,3,Sants-Montjuïc,41.37367362861198,2.137406174362691
Discoteca The Sutton Club Barcelona,C Tuset,13,5,Sarrià-Sant Gervasi,41.39601335463815,2.1517196747040805
Bar musical New Fizz Barcelona,Balmes,83,2,Eixample,41.391022459311564,2.1602391416204614
Bar musical New Fizz Barcelona,Balmes,83,2,Eixample,41.391022459311564,2.1602391416204614
Bar musical New Fizz Barcelona,Balmes,83,2,Eixample,41.391022459311564,2.1602391416204614
Discoteca Distrito Diagonal,Av Diagonal,442,2,Eixample,41.39708330346534,2.1607220347024616
Discoteca Distrito Diagonal,Av Diagonal,442,2,Eixample,41.39708330346534,2.1607220347024616
Bar musical Dow Jones,Bruc,97,2,Eixample,41.395575417175515,2.1677353618439863
Discoteca Boulevard Culture Club,C la Rambla,27,1,Ciutat Vella,41.37871072162061,2.1752714032628853
Discoteca Undead Dark Club,C Violant Hongria Reina Aragó,128,3,Sants-Montjuïc,41.37988788044138,2.1333373713098354
Tablao Flamenco Cordobés,C la Rambla,35,1,Ciutat Vella,41.37899885278571,2.1746459729448815
Tablao Flamenco Cordobés,C la Rambla,35,1,Ciutat Vella,41.37899885278571,2.1746459729448815
Discoteca Bachata Dance Club,C Casanova,171,2,Eixample,41.39189003836696,2.1500566668254297
Bar Musical Gran Bodega Saltó,C Blesa,36,3,Sants-Montjuïc,41.37276789934408,2.1671773889372346
Discoteca New Kimbara,Tajo,35,7,Horta-Guinardó,41.4295787565448,2.162401157494425
Virreina Bar,Pl Virreina,1,6,Gràcia,41.40496809922289,2.1575961797742833
Restaurant Xampanyeria Xampú Xampany,G.V. Corts Catalanes,702,2,Eixample,41.393709800097646,2.1743976795738784
Restaurant Xampanyeria Xampú Xampany,G.V. Corts Catalanes,702,2,Eixample,41.393709800097646,2.1743976795738784
Restaurant Xampanyeria Xampú Xampany,G.V. Corts Catalanes,702,2,Eixample,41.393709800097646,2.1743976795738784
Bar Tequila Bom Bom,C Nou de la Rambla,103,1,Ciutat Vella,41.37544394974666,2.170554731879733
Discoteca Costa Breve,Aribau,230,5,Sarrià-Sant Gervasi,41.39555371117258,2.150084728899705
Discoteca Nick,Av Madrid,160,3,Sants-Montjuïc,41.380282066054605,2.1311937669942975
Discoteca Nick,Av Madrid,160,3,Sants-Montjuïc,41.380282066054605,2.1311937669942975
Associació Cultural Heliogàbal,C Ramón y Cajal,80,6,Gràcia,41.40353832948327,2.1602342909501346
Restaurant Cocteleria Belvedere,Ptge Mercader,3,2,Eixample,41.392867328199806,2.159519625636362
Restaurant Cocteleria Belvedere,Ptge Mercader,3,2,Eixample,41.392867328199806,2.159519625636362
Restaurant Cocteleria Belvedere,Ptge Mercader,3,2,Eixample,41.392867328199806,2.159519625636362
Bar Pub K.M.,C Alcolea,100,3,Sants-Montjuïc,41.3797778944172,2.1351167772678896
Discoteca Restaurant Japonès Shôko,Passeig Marítim de la Barceloneta - Oriol Bohigas,36,1,Ciutat Vella,41.38346152967782,2.195232897771743
Discoteca Restaurant Japonès Shôko,Passeig Marítim de la Barceloneta - Oriol Bohigas,36,1,Ciutat Vella,41.38346152967782,2.195232897771743
Discoteca Restaurant Japonès Shôko,Passeig Marítim de la Barceloneta - Oriol Bohigas,36,1,Ciutat Vella,41.38346152967782,2.195232897771743
Bar Musical Jazzpetit,C Provença,181,2,Eixample,41.391037249428315,2.156390006958693
Bar Musical Ginger,C Palma de Sant Just,1,1,Ciutat Vella,41.38285062054267,2.178550509469824
Bar Musical The Daily Telegraph,C Pau Claris,139,2,Eixample,41.3936572682303,2.1657598568272727
Bar musical Terra,Pl Virreina,5,6,Gràcia,41.404881196137076,2.157013298175274
Bar musical Pastís,Santa Mònica,4,1,Ciutat Vella,41.377361653351976,2.1751586961120193
Bar Cafeteria Cafè d'Annunzio,Pl Vicenç Martorell,5,1,Ciutat Vella,41.384400652902265,2.1688232815018913
Bar Cafeteria Cafè d'Annunzio,Pl Vicenç Martorell,5,1,Ciutat Vella,41.384400652902265,2.1688232815018913
Bar Restaurant Café San Telmo,C Buenos Aires,60,2,Eixample,41.39339458663563,2.1485624883305787
Bar Restaurant Café San Telmo,C Buenos Aires,60,2,Eixample,41.39339458663563,2.1485624883305787
Bar Restaurant Café San Telmo,C Buenos Aires,60,2,Eixample,41.39339458663563,2.1485624883305787
Bar restaurant Kasparo,Pl Vicenç Martorell,4,1,Ciutat Vella,41.3844755308749,2.1689765625507604
Bar musical karaoke A viva voz *Rocafort,Rocafort,187,2,Eixample,41.38327627376151,2.147895054441786
Bar musical karaoke A viva voz *Rocafort,Rocafort,187,2,Eixample,41.38327627376151,2.147895054441786
Cerveseria The Fastnet Irish Pub,Pg Joan Borbó Comte Barcelona,22,1,Ciutat Vella,41.37959219784202,2.187823391218472
Bar Cocteleria 14 de la Rosa,C Martínez de la Rosa,14,6,Gràcia,41.399347247454045,2.1597416525304935
Bar Cocteleria 14 de la Rosa,C Martínez de la Rosa,14,6,Gràcia,41.399347247454045,2.1597416525304935
Cocteleria Stinger,C Còrsega,340,2,Eixample,41.3977203867166,2.161082480808859
Cocteleria Stinger,C Còrsega,340,2,Eixample,41.3977203867166,2.161082480808859
The Palace Bar,C Calàbria,292,2,Eixample,41.38854271202131,2.1435335515980345
Cocteleria Sucu Sucu,C París,150,2,Eixample,41.39176325465656,2.150921032655794
Cocteleria Sucu Sucu,C París,150,2,Eixample,41.39176325465656,2.150921032655794
Bar Bobby's Free,Pau Claris,85,2,Eixample,41.38992456175413,2.170690597891869
White Shisha Lounge,C Doctor Trueta,218,10,Sant Martí,41.398639303298225,2.203701225237378
Discoteca Antilla  Salsa Barcelona,Aragó,141,2,Eixample,41.38459846390524,2.154612386674822
Discoteca Antilla  Salsa Barcelona,Aragó,141,2,Eixample,41.38459846390524,2.154612386674822
Discoteca Antilla  Salsa Barcelona,Aragó,141,2,Eixample,41.38459846390524,2.154612386674822
Bar Musical Ende,C Casanova,210,2,Eixample,41.39194613153293,2.150351127690915
Restaurant Cocteleria Ajoblanco,C Tuset,20,5,Sarrià-Sant Gervasi,41.396011105884874,2.1521038034617512
Restaurant Cocteleria Ajoblanco,C Tuset,20,5,Sarrià-Sant Gervasi,41.396011105884874,2.1521038034617512
Restaurant Cocteleria Ajoblanco,C Tuset,20,5,Sarrià-Sant Gervasi,41.396011105884874,2.1521038034617512
Bar Restaurant Menta,C Casp,171,2,Eixample,41.39902924346256,2.1833714894413228
Bar Restaurant Menta,C Casp,171,2,Eixample,41.39902924346256,2.1833714894413228
Bar musical Woody,Pl Sol,7,6,Gràcia,41.4017887133653,2.1569922437175233
Bar musical Woody,Pl Sol,7,6,Gràcia,41.4017887133653,2.1569922437175233
Bar musical Woody,Pl Sol,7,6,Gràcia,41.4017887133653,2.1569922437175233
Restaurant Season Tapas,C Aribau,125,2,Eixample,41.391371633519185,2.155264470251063
Restaurant Season Tapas,C Aribau,125,2,Eixample,41.391371633519185,2.155264470251063
Restaurant Season Tapas,C Aribau,125,2,Eixample,41.391371633519185,2.155264470251063
Bar Musical Sinestesia,C Santa Caterina,52,3,Sants-Montjuïc,41.379620570361716,2.13604834950894
Bar Musical Brujas,C Mascaró,58,7,Horta-Guinardó,41.42258418527982,2.1734821454983106
Bar Musical Carita Bonita,C Balmes,71,2,Eixample,41.390364927111946,2.1611010301766593
Cocteleria Upiaywasi,C Allada-Vermell,11,1,Ciutat Vella,41.387013949661196,2.181087402797952
Cocteleria Upiaywasi,C Allada-Vermell,11,1,Ciutat Vella,41.387013949661196,2.181087402797952
Bar Musical Perifèric,C Tajo,5,7,Horta-Guinardó,41.43023628261143,2.163007312312215
Bar musical Mediterráneo,C Balmes,129,2,Eixample,41.39292132355964,2.1577280772488945
Bar Musical Macarena Club,C Nou de Sant Francesc,5,1,Ciutat Vella,41.379434851164376,2.1768342360455706
Bar Musical Macarena Club,C Nou de Sant Francesc,5,1,Ciutat Vella,41.379434851164376,2.1768342360455706
Bar musical El Local,Sant Eusebi,36,5,Sarrià-Sant Gervasi,41.40057310600014,2.1477703068298006
Ideal Cocktail's Bar,C Aribau,89,2,Eixample,41.38969390638597,2.1574798185172854
Ideal Cocktail's Bar,C Aribau,89,2,Eixample,41.38969390638597,2.1574798185172854
Bar Breston Club,Marià Cubí,111,5,Sarrià-Sant Gervasi,41.39680866255583,2.1476208307709657
Bar Musical Sugar,C Rauric,21,1,Ciutat Vella,41.38081200341269,2.175649781408531
Bar Musical Sugar,C Rauric,21,1,Ciutat Vella,41.38081200341269,2.175649781408531
Bar Musical Sugar,C Rauric,21,1,Ciutat Vella,41.38081200341269,2.175649781408531
Restaurant La Bodeguita del Poble *Poble Espanyol,Av Francesc Ferrer Guàrdia,25,3,Sants-Montjuïc,41.36914809976752,2.1467430809493484
Restaurant La Bodeguita del Poble *Poble Espanyol,Av Francesc Ferrer Guàrdia,25,3,Sants-Montjuïc,41.36914809976752,2.1467430809493484
Restaurant La Bodeguita del Poble *Poble Espanyol,Av Francesc Ferrer Guàrdia,25,3,Sants-Montjuïc,41.36914809976752,2.1467430809493484
Restaurant La Bodeguita del Poble *Poble Espanyol,Av Francesc Ferrer Guàrdia,25,3,Sants-Montjuïc,41.36914809976752,2.1467430809493484
Restaurant La Bodeguita del Poble *Poble Espanyol,Av Francesc Ferrer Guàrdia,25,3,Sants-Montjuïc,41.36914809976752,2.1467430809493484
Sala Bóveda,C Roc Boronat,33,10,Sant Martí,41.39844208848969,2.2000735297868075
Sala Bóveda,C Roc Boronat,33,10,Sant Martí,41.39844208848969,2.2000735297868075
Bar musical Alkimia Barcelona,C Amigó,35,5,Sarrià-Sant Gervasi,41.39514912999383,2.1445805836808725
Restaurant Cocteleria Ebano,Av Paral·lel,124,2,Eixample,41.37520631584879,2.161963381002588
Restaurant Cocteleria Ebano,Av Paral·lel,124,2,Eixample,41.37520631584879,2.161963381002588
Restaurant Fonda Balmes,C Balmes,175,5,Sarrià-Sant Gervasi,41.39618454722477,2.15347315067931
Restaurant Fonda Balmes,C Balmes,175,5,Sarrià-Sant Gervasi,41.39618454722477,2.15347315067931
Restaurant Fonda Balmes,C Balmes,175,5,Sarrià-Sant Gervasi,41.39618454722477,2.15347315067931
Cocteleria Casablanca,C Dos de Maig,277,2,Eixample,41.40895286868664,2.1794066495873743
Cocteleria Casablanca,C Dos de Maig,277,2,Eixample,41.40895286868664,2.1794066495873743
Bar Ultramarinos,C Sant Pau,126,1,Ciutat Vella,41.375585213310615,2.168031886207854
Bar Ultramarinos,C Sant Pau,126,1,Ciutat Vella,41.375585213310615,2.168031886207854
Bar Ultramarinos,C Sant Pau,126,1,Ciutat Vella,41.375585213310615,2.168031886207854
Discoteca Bembé,Viladomat,211,2,Eixample,41.38497193141125,2.1501654857940453
Discoteca Bembé,Viladomat,211,2,Eixample,41.38497193141125,2.1501654857940453
Shenanigans Irish Pub,Marquès de Barberà,11,1,Ciutat Vella,41.378684479508266,2.1725834152970993
Bar musical Arena Bar,Carassa,4,1,Ciutat Vella,41.38452866903529,2.180275833271697
Les Enfants,Guàrdia,3,1,Ciutat Vella,41.37807891865788,2.1737027964928317
Lounge Bar Restaurant Cirkuz Land,C Comerç,24,1,Ciutat Vella,41.3885044366227,2.181357200961683
Lounge Bar Restaurant Cirkuz Land,C Comerç,24,1,Ciutat Vella,41.3885044366227,2.181357200961683
Lounge Bar Restaurant Cirkuz Land,C Comerç,24,1,Ciutat Vella,41.3885044366227,2.181357200961683
Bar musical Konbe,C Deu i Mata,136,4,Les Corts,41.389975480807344,2.1384812970883083
Discoteca Louise se va,Pl Eivissa,11,7,Horta-Guinardó,41.43083189686833,2.160648914863765
Bar Musical Baroke,C Mallorca,492,2,Eixample,41.40664977805146,2.1797983650829615
Bar Musical Glaciar,Pl Reial,3,1,Ciutat Vella,41.38018745340412,2.1747234717977646
Restaurant La República,C Mercè,13,1,Ciutat Vella,41.380145554013005,2.1802835682089925
Restaurant La República,C Mercè,13,1,Ciutat Vella,41.380145554013005,2.1802835682089925
Restaurant La República,C Mercè,13,1,Ciutat Vella,41.380145554013005,2.1802835682089925
Restaurant Los Juanele,C Aldana,4,2,Eixample,41.3754940500759,2.1660050985516603
Restaurant Los Juanele,C Aldana,4,2,Eixample,41.3754940500759,2.1660050985516603
Sala Upload *Poble Espanyol,Av Francesc Ferrer Guàrdia,13,3,Sants-Montjuïc,41.36914809976752,2.1467430809493484
Sala Upload *Poble Espanyol,Av Francesc Ferrer Guàrdia,13,3,Sants-Montjuïc,41.36914809976752,2.1467430809493484
Discoteca Mandarina Delux,C València,335,2,Eixample,41.397335404089304,2.1692699976013006
Restaurant Cachitos Rambla,Rbla Catalunya,33,2,Eixample,41.38955542363021,2.1653172890490997
Restaurant Cachitos Rambla,Rbla Catalunya,33,2,Eixample,41.38955542363021,2.1653172890490997
Restaurant Cachitos Rambla,Rbla Catalunya,33,2,Eixample,41.38955542363021,2.1653172890490997
Bar musical Enigma,C Taquígraf Garriga,106,4,Les Corts,41.38845234264695,2.1365282421498586
Cocteleria P41 Bar & Coctelarium,C Marina,19,1,Ciutat Vella,41.387112550035134,2.1965735931050236
Cocteleria P41 Bar & Coctelarium,C Marina,19,1,Ciutat Vella,41.387112550035134,2.1965735931050236
Ebony Club,Av Doctor Marañón,17,4,Les Corts,41.38128475384014,2.1144500230834193
Bar Musical Cafè de les Arts,C València,234,2,Eixample,41.39028894095287,2.160279931341367
Bar Musical Cafè de les Arts,C València,234,2,Eixample,41.39028894095287,2.160279931341367
Cocteleria Bloody Mary,C Ferrer de Blanes,3,6,Gràcia,41.39838080141985,2.1592266897591372
Cocteleria Bloody Mary,C Ferrer de Blanes,3,6,Gràcia,41.39838080141985,2.1592266897591372
Bar Eldiset,C Antic de Sant Joan,3,1,Ciutat Vella,41.384997676677536,2.1834593112159237
Bar Eldiset,C Antic de Sant Joan,3,1,Ciutat Vella,41.384997676677536,2.1834593112159237
Elephant Restaurant & Lounge Club,C Pau Claris,92,2,Eixample,41.39027646369253,2.1705956409199136
Elephant Restaurant & Lounge Club,C Pau Claris,92,2,Eixample,41.39027646369253,2.1705956409199136
Cocteleria Caporal,C Escudellers,5,1,Ciutat Vella,41.37919573871951,2.1759054004849636
Cocteleria Caporal,C Escudellers,5,1,Ciutat Vella,41.37919573871951,2.1759054004849636
Restaurant Tierra Brava,Carrer de Casanova,133,2,Eixample,41.388505724567686,2.154540647914772
Restaurant Tierra Brava,Carrer de Casanova,133,2,Eixample,41.388505724567686,2.154540647914772
Restaurant Tierra Brava,Carrer de Casanova,133,2,Eixample,41.388505724567686,2.154540647914772
Discoteca La Biblio,C Moià,1,5,Sarrià-Sant Gervasi,41.39554458157321,2.152246304213008
Discoteca Bling Bling,C Tuset,8,5,Sarrià-Sant Gervasi,41.39562628105143,2.152642796992005
Bar Mil Miralls,C Perla,37,6,Gràcia,41.40404817002499,2.158022596085099
Bar Mil Miralls,C Perla,37,6,Gràcia,41.40404817002499,2.158022596085099
Bikini Barcelona,Av Diagonal,547,4,Les Corts,41.389745622801144,2.135399034259255
Bikini Barcelona,Av Diagonal,547,4,Les Corts,41.389745622801144,2.135399034259255
Irish Pub That's the Way,C Entença,85,2,Eixample,41.37944511035669,2.1507131940903763
Irish Pub That's the Way,C Entença,85,2,Eixample,41.37944511035669,2.1507131940903763
Irish Pub That's the Way,C Entença,85,2,Eixample,41.37944511035669,2.1507131940903763
Restaurant Nogg,C Tuset,30,5,Sarrià-Sant Gervasi,41.39644802383507,2.1515252971762155
Restaurant Nogg,C Tuset,30,5,Sarrià-Sant Gervasi,41.39644802383507,2.1515252971762155
Restaurant Nogg,C Tuset,30,5,Sarrià-Sant Gervasi,41.39644802383507,2.1515252971762155
Bar Cocteleria Elephanta,C Torrent d'en Vidalet,37,6,Gràcia,41.40455321964925,2.1587251561406275
Bar Cocteleria Elephanta,C Torrent d'en Vidalet,37,6,Gràcia,41.40455321964925,2.1587251561406275
Cocteleria Boadas,C Tallers,1,1,Ciutat Vella,41.38469812254818,2.17016223371085
Cocteleria Boadas,C Tallers,1,1,Ciutat Vella,41.38469812254818,2.17016223371085
Bar Musical Nix,C Rosselló,156,2,Eixample,41.39129047507136,2.154830040262932
Cocteleria San Basilio,Av Diagonal,337,2,Eixample,41.398396744162824,2.167879809006727
Cocteleria San Basilio,Av Diagonal,337,2,Eixample,41.398396744162824,2.167879809006727
Cocteleria San Basilio,Av Diagonal,337,2,Eixample,41.398396744162824,2.167879809006727
Discoteca Ker Club Barcelona,C Ramon Trias Fargas,2,1,Ciutat Vella,41.38602535095431,2.196560390003333
Hall0 Cocktail Bar,Pg Gràcia,75,2,Eixample,41.39394824496016,2.1622319089518474
Hall0 Cocktail Bar,Pg Gràcia,75,2,Eixample,41.39394824496016,2.1622319089518474
Sala Fundació Màgica,C Zamora,86,10,Sant Martí,41.39602936072267,2.1899655493540977
Marula Café Barcelona,C Escudellers,49,1,Ciutat Vella,41.38016461627024,2.176890987722211
Marula Café Barcelona,C Escudellers,49,1,Ciutat Vella,41.38016461627024,2.176890987722211
Bar Marsella,C Sant Pau,65,1,Ciutat Vella,41.3782782040133,2.17122360530803
City Hall Barcelona,Rbla Catalunya,2,2,Eixample,41.38767240351558,2.168440833723857
City Hall Barcelona,Rbla Catalunya,2,2,Eixample,41.38767240351558,2.168440833723857
Discoteca Blue Boîte,Av Diagonal,477,2,Eixample,41.39281575435929,2.145696147455505
Razzmatazz,C Almogàvers,122,10,Sant Martí,41.3977561996673,2.1910974309944122
Razzmatazz,C Almogàvers,122,10,Sant Martí,41.3977561996673,2.1910974309944122
Bar Musical Craft Barcelona,C Paradís,4,1,Ciutat Vella,41.38316256917568,2.1769828956771518
Tablao Framenco La Singla,C Marina,181,2,Eixample,41.39961801633128,2.180202948835963
Tablao Framenco La Singla,C Marina,181,2,Eixample,41.39961801633128,2.180202948835963
Restaurant Jok,C Mallorca,275,2,Eixample,41.394780684807124,2.1636064643362567
Restaurant Jok,C Mallorca,275,2,Eixample,41.394780684807124,2.1636064643362567
Restaurant Jok,C Mallorca,275,2,Eixample,41.394780684807124,2.1636064643362567
Sala Nota79,C Vallirana,79,5,Sarrià-Sant Gervasi,41.40533595627382,2.145832103145853
Sala Nota79,C Vallirana,79,5,Sarrià-Sant Gervasi,41.40533595627382,2.145832103145853
Bar El Rouge,C Poeta Cabanyes,21,3,Sants-Montjuïc,41.37417660426226,2.16570197954838
Bar El Rouge,C Poeta Cabanyes,21,3,Sants-Montjuïc,41.37417660426226,2.16570197954838
Bar El Rouge,C Poeta Cabanyes,21,3,Sants-Montjuïc,41.37417660426226,2.16570197954838
Bar Musical Bare Nostrum,Consell de Cent,384,2,Eixample,41.39543907514898,2.1716550874973453
Cafeteria restaurant Comillas,C Muntaner,190,2,Eixample,41.39276658227224,2.1515134020456643
Discoteca Aire Chicas,Diputació,233,2,Eixample,41.388467827264044,2.1642817404498693
Bar musical Honky Tonk  Blues,C Finlàndia,45,3,Sants-Montjuïc,41.37451427250659,2.1352454981434428
Restaurant Cafeteria Bòria Café *Poble Espanyol,Av Francesc Ferrer Guàrdia,13,3,Sants-Montjuïc,41.36914809976752,2.1467430809493484
Restaurant Cafeteria Bòria Café *Poble Espanyol,Av Francesc Ferrer Guàrdia,13,3,Sants-Montjuïc,41.36914809976752,2.1467430809493484
Discoteca Moog,C Arc del Teatre,3,1,Ciutat Vella,41.37810263291218,2.1750205741124047
Café Royale,C Nou de Zurbano,3,1,Ciutat Vella,41.37953735582486,2.1757081176225657
Escola de ball La Clave,Tenor Masini,65,3,Sants-Montjuïc,41.37779464410771,2.1316228231551433
Discoteca La Carpa Barcelona,Av Manuel Azaña,1,4,Les Corts,41.37704615291196,2.1102433249314747
Cocteleria Ventuno,C Or,21,6,Gràcia,41.40455417424451,2.1569494404772844
Cocteleria Ventuno,C Or,21,6,Gràcia,41.40455417424451,2.1569494404772844
Bar Espit Chupito,C Aribau,77,2,Eixample,41.3893739264994,2.1579054835360956
Restaurant Nervión,C Princesa,2,1,Ciutat Vella,41.38419749330031,2.1790920462060805
Restaurant Nervión,C Princesa,2,1,Ciutat Vella,41.38419749330031,2.1790920462060805
El Cafè de Les Delícies,Rbla Raval,47,1,Ciutat Vella,41.37817282477127,2.1704934158150695
Bar Restaurant La Higuera,C Sicília,101,2,Eixample,41.39582783319832,2.1809453170978967
Bar Restaurant La Higuera,C Sicília,101,2,Eixample,41.39582783319832,2.1809453170978967
Bar Restaurant La Higuera,C Sicília,101,2,Eixample,41.39582783319832,2.1809453170978967
Bar musical San Trop,C Comte d'Urgell,90,2,Eixample,41.38304043886288,2.157687555012478
Discoteca New Beat,Balmes,86,2,Eixample,41.39118098125482,2.160389785007188
Discoteca New Beat,Balmes,86,2,Eixample,41.39118098125482,2.160389785007188
Teatre Flamenc Barcelona,Carrer dels Abaixadors,6,1,Ciutat Vella,41.38310592859262,2.181191553452184
Teatre Flamenc Barcelona,Carrer dels Abaixadors,6,1,Ciutat Vella,41.38310592859262,2.181191553452184
Bar Musical The Shamrock,C Tallers,72,1,Ciutat Vella,41.385091096318206,2.1661052864565336
Bar Manchester *Valldonzella,C Valldonzella,40,1,Ciutat Vella,41.383472463708145,2.1650410792191233
Bar musical Mirablau,Plaça del Doctor Andreu,1,5,Sarrià-Sant Gervasi,41.41630398556836,2.1314166957286984
Bar musical Mirablau,Plaça del Doctor Andreu,1,5,Sarrià-Sant Gervasi,41.41630398556836,2.1314166957286984
Pub Madame Jasmine,Rbla Raval,22,1,Ciutat Vella,41.378038017835415,2.169687665192524
Pub Madame Jasmine,Rbla Raval,22,1,Ciutat Vella,41.378038017835415,2.169687665192524
Café Mudanzas,C Vidrieria,15,1,Ciutat Vella,41.3840597566491,2.183184727608598
Sala The Club M7,C Mèxic,7,3,Sants-Montjuïc,41.373077771889385,2.1482525661503633
Milans Cocktail Barcelona,Carrer de Milans,7,1,Ciutat Vella,41.38069660289495,2.179200834950244
Milans Cocktail Barcelona,Carrer de Milans,7,1,Ciutat Vella,41.38069660289495,2.179200834950244
JazzSí Club Taller de Músics,C Requesens,2,1,Ciutat Vella,41.37983801034717,2.1640907128848847
Cocteleria Negroni,C Joaquín Costa,46,1,Ciutat Vella,41.382951958959076,2.165471705736474
Cocteleria Negroni,C Joaquín Costa,46,1,Ciutat Vella,41.382951958959076,2.165471705736474
Bar musical New Chaps,Av Diagonal,365,2,Eixample,41.39714607914436,2.162803248441622
Bar musical La Trabanqueta,C Mallorca,329,2,Eixample,41.39826190210018,2.168228438932372
Bar musical Sabor Cubano *Francisco Giner,C Francisco Giner,32,6,Gràcia,41.39939919545339,2.158955446305032
Discoteca Twenties Barcelona,C Rosselló,208,2,Eixample,41.39364854152425,2.1579674657996786
Discoteca Twenties Barcelona,C Rosselló,208,2,Eixample,41.39364854152425,2.1579674657996786
Restaurant Carpe Diem Lounge Club - CDLC,Passeig Marítim de la Barceloneta - Oriol Bohigas,32,1,Ciutat Vella,41.38346152967782,2.195232897771743
Restaurant Carpe Diem Lounge Club - CDLC,Passeig Marítim de la Barceloneta - Oriol Bohigas,32,1,Ciutat Vella,41.38346152967782,2.195232897771743
Bar Musical Snooker Club Barcelona,C Roger de Llúria,42,2,Eixample,41.392162332990836,2.1703701211751545
Bar Musical Snooker Club Barcelona,C Roger de Llúria,42,2,Eixample,41.392162332990836,2.1703701211751545
Bar Musical Snooker Club Barcelona,C Roger de Llúria,42,2,Eixample,41.392162332990836,2.1703701211751545
Discoteca Bailodromo,C Felip II,25,9,Sant Andreu,41.41759885408637,2.190372312708387
La Cervesera Artesana,C Sant Agustí,14,6,Gràcia,41.39819063773138,2.160877642271708
Pepe Bar,C Pamplona,91,10,Sant Martí,41.396832757654764,2.1910330889967984
Discoteca Atlantic Sound BCN,Carrer del Plom,1,3,Sants-Montjuïc,41.351696251860766,2.135542512155757
Bar Musical Kahiki,G.V. Corts Catalanes,581,2,Eixample,41.38546797813454,2.162557302390988
Discoteca Club Catwalk,C Ramon Trias Fargas,2,1,Ciutat Vella,41.38602535095431,2.196560390003333
Discoteca Club Catwalk,C Ramon Trias Fargas,2,1,Ciutat Vella,41.38602535095431,2.196560390003333
Discoteca Club Catwalk,C Ramon Trias Fargas,2,1,Ciutat Vella,41.38602535095431,2.196560390003333
Restaurant Austin's Diner,Carrer del Carme,33,1,Ciutat Vella,41.382081089638596,2.1700147680151964
Restaurant Austin's Diner,Carrer del Carme,33,1,Ciutat Vella,41.382081089638596,2.1700147680151964
Sala Safari Disco Club Barcelona,Carrer de Tarragona,141,3,Sants-Montjuïc,41.37836365659044,2.144903970491513
Sala Safari Disco Club Barcelona,Carrer de Tarragona,141,3,Sants-Montjuïc,41.37836365659044,2.144903970491513
Bar Otaku Akihabar BCN,Carrer d'Eugeni d'Ors,5,4,Les Corts,41.38404979494545,2.128804158661301
Bar Otaku Akihabar BCN,Carrer d'Eugeni d'Ors,5,4,Les Corts,41.38404979494545,2.128804158661301
Discoteca Wolf Barcelona,Almogàvers,88,10,Sant Martí,41.3959165649819,2.1886110824901572
Bar Musical Pony Café,C Portal Nou,23,1,Ciutat Vella,41.388756500336285,2.180664984498364
Bar Musical Robadors 23,C Robador,23,1,Ciutat Vella,41.37969029923238,2.1707734546495163
Bar musical Número 9,C Vidrieria,9,1,Ciutat Vella,41.384171374305986,2.1829154304659037
Bar musical Summum NightBar,C Aribau,66,2,Eixample,41.38882170822292,2.1590027056469863
Bar Musical Pub Sotavent,C Major de Sarrià,61,5,Sarrià-Sant Gervasi,41.39819134208596,2.122389815504967
Bar Musical Pub Sotavent,C Major de Sarrià,61,5,Sarrià-Sant Gervasi,41.39819134208596,2.122389815504967
Bar Musical Pub Sotavent,C Major de Sarrià,61,5,Sarrià-Sant Gervasi,41.39819134208596,2.122389815504967
L'Ex-Designer Project Bar,C Entença,3,2,Eixample,41.37547091723156,2.155976362002667
Bar Musical Ruta 66,C Sòcrates,66,9,Sant Andreu,41.43198313994531,2.186010931230324
Espai Cultural i Gastronòmic Casa Montjuïc,Carrer de Vila i Vilà,63,3,Sants-Montjuïc,41.37384901072978,2.169656036452183
Espai Cultural i Gastronòmic Casa Montjuïc,Carrer de Vila i Vilà,63,3,Sants-Montjuïc,41.37384901072978,2.169656036452183
Espai Cultural i Gastronòmic Casa Montjuïc,Carrer de Vila i Vilà,63,3,Sants-Montjuïc,41.37384901072978,2.169656036452183
Discoteca Arena Xperience,Rda Sant Pere,19,2,Eixample,41.38962561720019,2.1740469932816198
Pub Ambarito,C Consell de Cent,193,2,Eixample,41.38431019706196,2.1564849782358957
Pub Ambarito,C Consell de Cent,193,2,Eixample,41.38431019706196,2.1564849782358957
Cocteleria Nola,Carrer de Santa Teresa,1,6,Gràcia,41.398079096179615,2.159655379839964
Cocteleria Nola,Carrer de Santa Teresa,1,6,Gràcia,41.398079096179615,2.159655379839964
Discoteca Barroko's,Aribau,242,5,Sarrià-Sant Gervasi,41.395807586298254,2.1497435681182577
Discoteca Barroko's,Aribau,242,5,Sarrià-Sant Gervasi,41.395807586298254,2.1497435681182577
Bar musical Paco Moreno,C Balmes,56,2,Eixample,41.38948520950373,2.1626356910049322
Bar Musical La Fira,C Provença,171,2,Eixample,41.39042846573138,2.1555808478657106
Restaurant El Patio Andaluz,C Rocafort,231,2,Eixample,41.38493696007484,2.145699638113742
Restaurant El Patio Andaluz,C Rocafort,231,2,Eixample,41.38493696007484,2.145699638113742
Cocteleria El Copetín,Pg Born,19,1,Ciutat Vella,41.38491138203342,2.182740723733004
Cocteleria El Copetín,Pg Born,19,1,Ciutat Vella,41.38491138203342,2.182740723733004
Cocteleria El Copetín,Pg Born,19,1,Ciutat Vella,41.38491138203342,2.182740723733004
Bar musical Le Cyrano,Aribau,154,2,Eixample,41.392227616896704,2.1544931281410387
Bar Trash Talk,Carrer de Pere IV,244,10,Sant Martí,41.40509985905568,2.1997537893241734
Restaurant Jacqueline Barcelona,Carrer d'Enric Granados,66,2,Eixample,41.392112904203124,2.156855974129123
Restaurant Jacqueline Barcelona,Carrer d'Enric Granados,66,2,Eixample,41.392112904203124,2.156855974129123
Restaurant Jacqueline Barcelona,Carrer d'Enric Granados,66,2,Eixample,41.392112904203124,2.156855974129123
Bar musical karaoke A viva voz *Muntaner,Carrer de Muntaner,414,5,Sarrià-Sant Gervasi,41.40064533863631,2.141018810755501
Bar musical karaoke A viva voz *Muntaner,Carrer de Muntaner,414,5,Sarrià-Sant Gervasi,41.40064533863631,2.141018810755501
Bar Olímpic,Carrer de Joaquín Costa,25,1,Ciutat Vella,41.382042218836446,2.1662714200967508
Bar Olímpic,Carrer de Joaquín Costa,25,1,Ciutat Vella,41.382042218836446,2.1662714200967508
Bar Musical Síncopa,C Avinyó,35,1,Ciutat Vella,41.38038486495567,2.1790455907532307
Bar Musical Síncopa,C Avinyó,35,1,Ciutat Vella,41.38038486495567,2.1790455907532307
Bar Musical Síncopa,C Avinyó,35,1,Ciutat Vella,41.38038486495567,2.1790455907532307
Restaurant Gala Barcelona,Carrer de Provença,286,2,Eixample,41.39416705168491,2.160893343821387
Restaurant Gala Barcelona,Carrer de Provença,286,2,Eixample,41.39416705168491,2.160893343821387
Restaurant Gala Barcelona,Carrer de Provença,286,2,Eixample,41.39416705168491,2.160893343821387
Sala B,C Muntaner,246,5,Sarrià-Sant Gervasi,41.39462416093732,2.1490629497204705
Bar Musical Velvet,C Balmes,161,2,Eixample,41.394630938958436,2.1554916493596523
Bar Café Berlín,C Muntaner,240,5,Sarrià-Sant Gervasi,41.39435992415567,2.1495155215376536
Cocteleria Libertine,Gran Via de les Corts Catalanes,700,2,Eixample,41.39363075012316,2.174292114308535
Cocteleria Libertine,Gran Via de les Corts Catalanes,700,2,Eixample,41.39363075012316,2.174292114308535
Restaurant Cómico-Cómico,C Aribau,87,2,Eixample,41.38963611084167,2.157555547149624
Restaurant Cómico-Cómico,C Aribau,87,2,Eixample,41.38963611084167,2.157555547149624
Discoteca Q Pedralbes,C Santa Caterina de Siena,28,4,Les Corts,41.39007726397428,2.1105905629941457
Dmen's Gay Bar,C Consell de Cent,257,2,Eixample,41.38690073332765,2.159931351021674
Bar Restaurant El Último Agave,C Aragó,193,2,Eixample,41.38789438953104,2.1589071315097383
Bar Restaurant El Último Agave,C Aragó,193,2,Eixample,41.38789438953104,2.1589071315097383
Big Bang Bar,C Botella,7,1,Ciutat Vella,41.37913148915533,2.165960625122118
Karaoke Weekend,C Diputació,365,2,Eixample,41.39640793211598,2.1748493985193593
Le Pop Bar,la Rambla,111,1,Ciutat Vella,41.38390793676847,2.170925662996933
Mariposa Negra Cocktail Bar,Plaça de les Olles,4,1,Ciutat Vella,41.383719684317704,2.183105361640218
Mariposa Negra Cocktail Bar,Plaça de les Olles,4,1,Ciutat Vella,41.383719684317704,2.183105361640218
Bar Guayoyo,Pl Camp,2,5,Sarrià-Sant Gervasi,41.40353935182329,2.136347375782836
Bar Guayoyo,Pl Camp,2,5,Sarrià-Sant Gervasi,41.40353935182329,2.136347375782836
Bar Manchester *Milans,C Milans,5,1,Ciutat Vella,41.380673329300826,2.1790331368717992
Espai Abaixadors10,C Abaixadors,10,1,Ciutat Vella,41.38313766764445,2.1812079409287026
Espai Abaixadors10,C Abaixadors,10,1,Ciutat Vella,41.38313766764445,2.1812079409287026
Golden Shisha Lounge,C Plató,13,5,Sarrià-Sant Gervasi,41.400356636257655,2.141795642545872
Bar musical Aloha,C Provença,159,2,Eixample,41.38976422851548,2.154691016573122
Bar musical Aloha,C Provença,159,2,Eixample,41.38976422851548,2.154691016573122
Bar musical Aloha,C Provença,159,2,Eixample,41.38976422851548,2.154691016573122
Club Red 58,Carrer del Consell de Cent,280,2,Eixample,41.389314537679645,2.1635206374326703
Club Red 58,Carrer del Consell de Cent,280,2,Eixample,41.389314537679645,2.1635206374326703
Cocteleria Dry Martini,Carrer d'Aribau,162,2,Eixample,41.392747129473754,2.153755190091385
Cocteleria Dry Martini,Carrer d'Aribau,162,2,Eixample,41.392747129473754,2.153755190091385
Bar Kentucky,Arc del Teatre,11,1,Ciutat Vella,41.37773746261081,2.1747141205093774
Restaurant & Cocktails Oda,Marina,19,1,Ciutat Vella,41.38711355868508,2.19657227700629
Restaurant & Cocktails Oda,Marina,19,1,Ciutat Vella,41.38711355868508,2.19657227700629
Restaurant & Cocktails Oda,Marina,19,1,Ciutat Vella,41.38711355868508,2.19657227700629
Bar Musical El Cangrejo,C Montserrat,9,1,Ciutat Vella,41.377306205542666,2.1749164942038908
Bar musical El Col·leccionista,C Torrent de les Flors,46,6,Gràcia,41.405928374325434,2.160597890969117
Plata Cocktail Bar,Carrer del Consell de Cent,233,2,Eixample,41.38591435345882,2.1586203473449914
Plata Cocktail Bar,Carrer del Consell de Cent,233,2,Eixample,41.38591435345882,2.1586203473449914
Sala Vol,Sancho de Avila,78,10,Sant Martí,41.39947176748643,2.1911766196332345
Cocteleria Focacha,Carrer de Tuset,17,5,Sarrià-Sant Gervasi,41.39609626603632,2.151556832415329
Cocteleria Focacha,Carrer de Tuset,17,5,Sarrià-Sant Gervasi,41.39609626603632,2.151556832415329
Restaurant Feroz,C Tuset,27,5,Sarrià-Sant Gervasi,41.396581483249285,2.150925337044923
Restaurant Feroz,C Tuset,27,5,Sarrià-Sant Gervasi,41.396581483249285,2.150925337044923
Restaurant Feroz,C Tuset,27,5,Sarrià-Sant Gervasi,41.396581483249285,2.150925337044923
Bar musical Berimbau,Pg Born,17,1,Ciutat Vella,41.38473370117052,2.1826265545975816
Discoteca Karma,Pl Reial,10,1,Ciutat Vella,41.38024675735264,2.1756129701103344
Bar Cocteleria El Born,Pg Born,26,1,Ciutat Vella,41.3847997564601,2.1829822055095467
Bar Cocteleria El Born,Pg Born,26,1,Ciutat Vella,41.3847997564601,2.1829822055095467
Bar musical La Kontra de Gràcia,Plaça del Sol,3,6,Gràcia,41.4014849827007,2.156933308268389
Bar musical La Kontra de Gràcia,Plaça del Sol,3,6,Gràcia,41.4014849827007,2.156933308268389
Bar L'Antiquari,C Veguer,13,1,Ciutat Vella,41.383945815176865,2.1775126566064578
Bar L'Antiquari,C Veguer,13,1,Ciutat Vella,41.383945815176865,2.1775126566064578
Jamboree 3,Plaça Reial,18,1,Ciutat Vella,41.379790742572375,2.1751625816640954
Jamboree 3,Plaça Reial,18,1,Ciutat Vella,41.379790742572375,2.1751625816640954
Restaurant L'Estació Espai Gastronòmic,Avinguda del Marquès de l'Argentera,6,1,Ciutat Vella,41.38445846777905,2.185193301193823
Restaurant L'Estació Espai Gastronòmic,Avinguda del Marquès de l'Argentera,6,1,Ciutat Vella,41.38445846777905,2.185193301193823
